[{"OBJECT_NAME":"TEVEL2-4","OBJECT_ID":"2025-052D","EPOCH":"2026-03-09T16:39:37.129536","MEAN_MOTION":15.30925813,"ECCENTRICITY":0.0004733,"INCLINATION":97.4009,"RA_OF_ASC_NODE":325.1237,"ARG_OF_PERICENTER":95.3468,"MEAN_ANOMALY":264.8313,"EPHEMERIS_TYPE":0,"CLASSIFICATION_TYPE":"U","NORAD_CAT_ID":63213,"ELEMENT_SET_NO":999,"REV_AT_EPOCH":5487,"BSTAR":0.00070362503,"MEAN_MOTION_DOT":0.0002099,"MEAN_MOTION_DDOT":0},{"OBJECT_NAME":"STARLINK-36409","OBJECT_ID":"2026-005C","EPOCH":"2026-03-09T11:38:31.155648","MEAN_MOTION":15.27606185,"ECCENTRICITY":0.00018205,"INCLINATION":42.9972,"RA_OF_ASC_NODE":239.2756,"ARG_OF_PERICENTER":274.16,"MEAN_ANOMALY":85.9044,"EPHEMERIS_TYPE":0,"CLASSIFICATION_TYPE":"U","NORAD_CAT_ID":67406,"ELEMENT_SET_NO":999,"REV_AT_EPOCH":866,"BSTAR":0.0015357532,"MEAN_MOTION_DOT":0.00042276,"MEAN_MOTION_DDOT":0}]
